NORAD_CAT_ID,OBJECT_NAME,OBJECT_TYPE,EPOCH,MEAN_MOTION,ECCENTRICITY,INCLINATION,RA_OF_ASC_NODE,ARG_OF_PERICENTER,MEAN_ANOMALY,BSTAR,MEAN_MOTION_DOT,MEAN_MOTION_DDOT,TLE_LINE0,TLE_LINE1,TLE_LINE2,SEMIMAJOR_AXIS,PERIOD,APOGEE,PERIGEE,DECAYED
51752.0,STARLINK-3511,PAYLOAD,2024-06-25 08:46:04,15.08832516,0.0001397,53.2168,222.7801,94.6145,265.5007,2.2238e-05,6.6e-07,0.0,0 STARLINK-3511,1 51752U 22016AQ  24177.36532609  .00000066  00000-0  22238-4 0  9999,2 51752  53.2168 222.7801 0001397  94.6145 265.5007 15.08832516130871,6917.903,95.438,540.735,538.802,0.0
51752.0,STARLINK-3511,PAYLOAD,2024-06-26 10:12:13,15.08859268,0.0001409,53.2163,218.0192,85.668,274.4473,-0.00014598,-2.612e-05,0.0,0 STARLINK-3511,1 51752U 22016AQ  24178.42515515 -.00002612  00000-0 -14598-3 0  9994,2 51752  53.2163 218.0192 0001409  85.6680 274.4473 15.08859268131033,6917.821,95.436,540.661,538.712,0.0
51752.0,STARLINK-3511,PAYLOAD,2024-06-27 10:03:01,15.0883844,0.0001341,53.2153,213.5611,86.6818,273.4328,6.177e-05,6.95e-06,0.0,0 STARLINK-3511,1 51752U 22016AQ  24179.41876265  .00000695  00000-0  61770-4 0  9998,2 51752  53.2153 213.5611 0001341  86.6818 273.4328 15.08838440131180,6917.885,95.438,540.678,538.822,0.0
51752.0,STARLINK-3511,PAYLOAD,2024-06-28 08:18:25,15.08839856,0.0001388,53.2151,209.3986,86.2112,273.9039,6.4355e-06,-1.86e-06,0.0,0 STARLINK-3511,1 51752U 22016AQ  24180.34612453 -.00000186  00000-0  64355-5 0  9998,2 51752  53.2151 209.3986 0001388  86.2112 273.9039 15.08839856130208,6917.881,95.438,540.706,538.786,0.0
51752.0,STARLINK-3511,PAYLOAD,2024-06-29 04:58:25,15.08844974,0.0001382,53.2154,205.532,87.9078,272.2072,8.4573e-05,1.058e-05,0.0,0 STARLINK-3511,1 51752U 22016AQ  24181.20723787  .00001058  00000-0  84573-4 0  9998,2 51752  53.2154 205.5320 0001382  87.9078 272.2072 15.08844974131458,6917.865,95.437,540.686,538.774,0.0
51752.0,STARLINK-3511,PAYLOAD,2024-06-29 08:09:11,15.08846304,0.0001394,53.2154,204.9371,89.3326,270.7826,9.7232e-05,1.26e-05,0.0,0 STARLINK-3511,1 51752U 22016AQ  24181.33971650  .00001260  00000-0  97232-4 0  9997,2 51752  53.2154 204.9371 0001394  89.3326 270.7826 15.08846304130359,6917.861,95.437,540.69,538.762,0.0
51752.0,STARLINK-3511,PAYLOAD,2024-06-30 04:49:13,15.08835402,0.0001336,53.2137,201.0704,87.2103,272.9042,-1.0628e-05,-4.57e-06,0.0,0 STARLINK-3511,1 51752U 22016AQ  24182.20084824 -.00000457  00000-0 -10628-4 0  9995,2 51752  53.2137 201.0704 0001336  87.2103 272.9042 15.08835402131604,6917.894,95.438,540.684,538.835,0.0
51752.0,STARLINK-3511,PAYLOAD,2024-06-30 11:10:46,15.08830887,0.00015,53.2164,199.8805,96.1968,263.9195,-5.6669e-05,-1.19e-05,0.0,0 STARLINK-3511,1 51752U 22016AQ  24182.46581293 -.00001190  00000-0 -56669-4 0  9995,2 51752  53.2164 199.8805 0001500  96.1968 263.9195 15.08830887130522,6917.908,95.438,540.811,538.736,0.0
51752.0,STARLINK-3511,PAYLOAD,2024-07-01 07:50:46,15.08839147,0.000131,53.215,196.0159,91.5936,268.5206,-1.3813e-05,-5.08e-06,0.0,0 STARLINK-3511,1 51752U 22016AQ  24183.32692906 -.00000508  00000-0 -13813-4 0  9991,2 51752  53.2150 196.0159 0001310  91.5936 268.5206 15.08839147131771,6917.883,95.438,540.654,538.842,0.0
51752.0,STARLINK-3511,PAYLOAD,2024-07-01 17:23:05,15.08839059,0.0001326,53.2154,194.2317,92.7448,267.3696,1.5852e-05,-3.6e-07,0.0,0 STARLINK-3511,1 51752U 22016AQ  24183.72436860 -.00000036  00000-0  15852-4 0  9990,2 51752  53.2154 194.2317 0001326  92.7448 267.3696 15.08839059130714,6917.883,95.438,540.666,538.831,0.0
51752.0,STARLINK-3511,PAYLOAD,2024-07-02 07:41:33,15.08834742,0.0001365,53.2157,191.5557,96.0127,264.1021,0.0001143,1.531e-05,0.0,0 STARLINK-3511,1 51752U 22016AQ  24184.32053154  .00001531  00000-0  11430-3 0  9995,2 51752  53.2157 191.5557 0001365  96.0127 264.1021 15.08834742130808,6917.896,95.438,540.706,538.817,0.0
51752.0,STARLINK-3511,PAYLOAD,2024-07-02 17:13:52,15.088348,0.0001373,53.2157,189.7717,95.8862,264.2287,8.9089e-05,1.13e-05,0.0,0 STARLINK-3511,1 51752U 22016AQ  24184.71797341  .00001130  00000-0  89089-4 0  9992,2 51752  53.2157 189.7717 0001373  95.8862 264.2287 15.08834800131987,6917.896,95.438,540.711,538.811,0.0
51752.0,STARLINK-3511,PAYLOAD,2024-07-03 17:04:40,15.08837146,0.0001391,53.2163,185.311,92.6152,267.4999,3.7258e-05,3.05e-06,0.0,0 STARLINK-3511,1 51752U 22016AQ  24185.71157613  .00000305  00000-0  37258-4 0  9999,2 51752  53.2163 185.3110 0001391  92.6152 267.4999 15.08837146131015,6917.889,95.438,540.716,538.792,0.0
51752.0,STARLINK-3511,PAYLOAD,2024-07-04 04:12:22,15.0883752,0.000141,53.2164,183.2296,90.3016,269.8138,2.795e-05,1.57e-06,0.0,0 STARLINK-3511,1 51752U 22016AQ  24186.17525695  .00000157  00000-0  27950-4 0  9992,2 51752  53.2164 183.2296 0001410  90.3016 269.8138 15.08837520132203,6917.888,95.438,540.728,538.778,0.0
51752.0,STARLINK-3511,PAYLOAD,2024-07-04 08:58:31,15.08838985,0.0001394,53.2161,182.337,88.1251,271.9901,3.3132e-05,2.39e-06,0.0,0 STARLINK-3511,1 51752U 22016AQ  24186.37397594  .00000239  00000-0  33132-4 0  9999,2 51752  53.2161 182.3370 0001394  88.1251 271.9901 15.08838985131117,6917.883,95.438,540.713,538.784,0.0
51752.0,STARLINK-3511,PAYLOAD,2024-07-04 23:16:59,15.08838509,0.0001416,53.2162,179.6602,87.7212,272.3942,7.743e-05,9.45e-06,0.0,0 STARLINK-3511,1 51752U 22016AQ  24186.97013508  .00000945  00000-0  77430-4 0  9998,2 51752  53.2162 179.6602 0001416  87.7212 272.3942 15.08838509131204,6917.885,95.438,540.73,538.77,0.0
51752.0,STARLINK-3511,PAYLOAD,2024-07-05 07:13:55,15.08843376,0.0001377,53.2159,178.1736,88.1086,272.0063,9.1261e-05,1.165e-05,0.0,0 STARLINK-3511,1 51752U 22016AQ  24187.30133146  .00001165  00000-0  91261-4 0  9990,2 51752  53.2159 178.1736 0001377  88.1086 272.0063 15.08843376132370,6917.87,95.437,540.688,538.782,0.0
51752.0,STARLINK-3511,PAYLOAD,2024-07-05 23:07:46,15.08841563,0.0001404,53.2158,175.2005,87.6233,272.4919,6.3462e-05,7.22e-06,0.0,0 STARLINK-3511,1 51752U 22016AQ  24187.96373279  .00000722  00000-0  63462-4 0  9995,2 51752  53.2158 175.2005 0001404  87.6233 272.4919 15.08841563131352,6917.876,95.437,540.712,538.769,0.0
51752.0,STARLINK-3511,PAYLOAD,2024-07-06 05:29:18,15.08843349,0.0001385,53.2155,174.0108,89.0246,271.0905,7.5156e-05,9.08e-06,0.0,0 STARLINK-3511,1 51752U 22016AQ  24188.22869069  .00000908  00000-0  75156-4 0  9991,2 51752  53.2155 174.0108 0001385  89.0246 271.0905 15.08843349131396,6917.87,95.437,540.693,538.777,0.0
51752.0,STARLINK-3511,PAYLOAD,2024-07-06 16:37:01,15.08839454,0.0001358,53.2155,171.9293,88.6881,271.4267,1.5416e-05,-4.3e-07,0.0,0 STARLINK-3511,1 51752U 22016AQ  24188.69237363 -.00000043  00000-0  15416-4 0  9992,2 51752  53.2155 171.9293 0001358  88.6881 271.4267 15.08839454132586,6917.882,95.438,540.687,538.808,0.0
51752.0,STARLINK-3511,PAYLOAD,2024-07-06 22:58:33,15.08837929,0.0001379,53.2156,170.74,88.9605,271.1545,-7.8358e-06,-4.13e-06,0.0,0 STARLINK-3511,1 51752U 22016AQ  24188.95733555 -.00000413  00000-0 -78358-5 0  9992,2 51752  53.2156 170.7400 0001379  88.9605 271.1545 15.08837929131506,6917.887,95.438,540.706,538.798,0.0
51752.0,STARLINK-3511,PAYLOAD,2024-07-07 08:30:52,15.08839469,0.0001422,53.2158,168.955,94.6861,265.4294,-4.861e-06,-3.65e-06,0.0,0 STARLINK-3511,1 51752U 22016AQ  24189.35477400 -.00000365  00000-0 -48610-5 0  9995,2 51752  53.2158 168.9550 0001422  94.6861 265.4294 15.08839469131564,6917.882,95.438,540.731,538.763,0.0
51752.0,STARLINK-3511,PAYLOAD,2024-07-08 03:35:30,15.08840398,0.0001382,53.2158,165.3869,94.6025,265.5125,1.0884e-05,-1.15e-06,0.0,0 STARLINK-3511,1 51752U 22016AQ  24190.14965309 -.00000115  00000-0  10884-4 0  9997,2 51752  53.2158 165.3869 0001382  94.6025 265.5125 15.08840398132800,6917.879,95.438,540.7,538.788,0.0
51752.0,STARLINK-3511,PAYLOAD,2024-07-08 22:40:07,15.08836046,0.0001314,53.2153,161.8192,90.9108,269.2035,4.2084e-05,3.82e-06,0.0,0 STARLINK-3511,1 51752U 22016AQ  24190.94453562  .00000382  00000-0  42084-4 0  9990,2 51752  53.2153 161.8192 0001314  90.9108 269.2035 15.08836046131806,6917.892,95.438,540.666,538.848,0.0
51752.0,STARLINK-3511,PAYLOAD,2024-07-09 05:01:40,15.08840721,0.0001312,53.2158,160.6297,90.6922,269.4221,6.4194e-05,7.34e-06,0.0,0 STARLINK-3511,1 51752U 22016AQ  24191.20949216  .00000734  00000-0  64194-4 0  9993,2 51752  53.2158 160.6297 0001312  90.6922 269.4221 15.08840721132965,6917.878,95.438,540.651,538.836,0.0
51752.0,STARLINK-3511,PAYLOAD,2024-07-09 14:33:59,15.08838874,0.0001315,53.2157,158.8455,90.0964,270.0178,4.7476e-05,4.68e-06,0.0,0 STARLINK-3511,1 51752U 22016AQ  24191.60693398  .00000468  00000-0  47476-4 0  9992,2 51752  53.2157 158.8455 0001315  90.0964 270.0178 15.08838874131900,6917.884,95.438,540.659,538.839,0.0
51752.0,STARLINK-3511,PAYLOAD,2024-07-09 22:30:55,15.08823727,0.00015,53.218,157.3632,100.9686,259.1475,9.7554e-05,1.264e-05,0.0,0 STARLINK-3511,1 51752U 22016AQ  24191.93814208  .00001264  00000-0  97554-4 0  9990,2 51752  53.2180 157.3632 0001500 100.9686 259.1475 15.08823727131959,6917.93,95.439,540.833,538.757,0.0
51752.0,STARLINK-3511,PAYLOAD,2024-07-10 04:52:28,15.0883304,0.0001558,53.2179,156.1722,96.1315,263.9855,-5.5029e-06,-3.76e-06,0.0,0 STARLINK-3511,1 51752U 22016AQ  24192.20310237 -.00000376  00000-0 -55029-5 0  9991,2 51752  53.2179 156.1722 0001558  96.1315 263.9855 15.08833040133116,6917.902,95.438,540.844,538.689,0.0
51752.0,STARLINK-3511,PAYLOAD,2024-07-10 14:24:46,15.08834063,0.000153,53.2182,154.3878,94.6048,265.5118,2.6778e-05,1.38e-06,0.0,0 STARLINK-3511,1 51752U 22016AQ  24192.60054222  .00000138  00000-0  26778-4 0  9996,2 51752  53.2182 154.3878 0001530  94.6048 265.5118 15.08834063132056,6917.899,95.438,540.822,538.705,0.0
51752.0,STARLINK-3511,PAYLOAD,2024-07-10 22:21:42,15.08836878,0.0001505,53.2181,152.9001,93.0617,267.0547,-4.8365e-07,-2.96e-06,0.0,0 STARLINK-3511,1 51752U 22016AQ  24192.93174197 -.00000296  00000-0 -48365-6 0  9991,2 51752  53.2181 152.9001 0001505  93.0617 267.0547 15.08836878132109,6917.89,95.438,540.796,538.714,0.0
